CTC1_L_00498016-05
1 84147U 24837IG  26070.40837963  .00000000  00000+0  00000-0 0  9992
2 84147 100.5000 180.0000 0000000   0.0000 270.0000 12.90384021    11
CTC1_L_00498016-06
1 84148U 22566YC  26070.40837963  .00000000  00000+0  00000-0 0  9990
2 84148 100.5000 180.0000 0000000   0.0000 315.0000 12.90384021    12
CTC1_L_00498016-07
1 84149U 22149BT  26070.40837963  .00000000  00000+0  00000-0 0  9998
2 84149 100.5000 180.0000 0000000   0.0000   0.0000 12.90384021    14
CTC1_L_00498016-08
1 84150U 25873H   26070.40837963  .00000000  00000+0  00000-0 0  9997
2 84150 100.5000 180.0000 0000000   0.0000  45.0000 12.90384021    15
CTC1_L_00498017-01
1 84151U 26210OS  26070.40837963  .00000000  00000+0  00000-0 0  9994
2 84151 100.5000 192.0000 0000000   0.0000  96.0000 12.90384021    15
CTC1_L_00498017-02
1 84152U 24166TF  26070.40837963  .00000000  00000+0  00000-0 0  9993
2 84152 100.5000 192.0000 0000000   0.0000 141.0000 12.90384021    17
CTC1_L_00498017-03
1 84153U 25407IV  26070.40837963  .00000000  00000+0  00000-0 0  9993
2 84153 100.5000 192.0000 0000000   0.0000 186.0000 12.90384021    17
CTC1_L_00498017-04
1 84154U 22756QQ  26070.40837963  .00000000  00000+0  00000-0 0  9998
2 84154 100.5000 192.0000 0000000   0.0000 231.0000 12.90384021    19
CTC1_L_00498017-05
1 84155U 24935MY  26070.40837963  .00000000  00000+0  00000-0 0  9990
2 84155 100.5000 192.0000 0000000   0.0000 276.0000 12.90384021    19
CTC1_L_00498017-06
1 84156U 25658HF  26070.40837963  .00000000  00000+0  00000-0 0  9994
2 84156 100.5000 192.0000 0000000   0.0000 321.0000 12.90384021    11
CTC1_L_00498017-07
1 84157U 23980YT  26070.40837963  .00000000  00000+0  00000-0 0  9991
2 84157 100.5000 192.0000 0000000   0.0000   6.0000 12.90384021    12
CTC1_L_00498017-08
1 84158U 25347HI  26070.40837963  .00000000  00000+0  00000-0 0  9991
2 84158 100.5000 192.0000 0000000   0.0000  51.0000 12.90384021    13
CTC1_L_00498018-01
1 84159U 24549Q   26070.40837963  .00000000  00000+0  00000-0 0  9995
2 84159 100.5000 204.0000 0000000   0.0000 102.0000 12.90384021    15
CTC1_L_00498018-02
1 84160U 26287NN  26070.40837963  .00000000  00000+0  00000-0 0  9998
2 84160 100.5000 204.0000 0000000   0.0000 147.0000 12.90384021    16
CTC1_L_00498018-03
1 84161U 24184BR  26070.40837963  .00000000  00000+0  00000-0 0  9993
2 84161 100.5000 204.0000 0000000   0.0000 192.0000 12.90384021    17
CTC1_L_00498018-04
1 84162U 24047RG  26070.40837963  .00000000  00000+0  00000-0 0  9992
2 84162 100.5000 204.0000 0000000   0.0000 237.0000 12.90384021    18
CTC1_L_00498018-05
1 84163U 24987CB  26070.40837963  .00000000  00000+0  00000-0 0  9996
2 84163 100.5000 204.0000 0000000   0.0000 282.0000 12.90384021    19
CTC1_L_00498018-06
1 84164U 24809WC  26070.40837963  .00000000  00000+0  00000-0 0  9990
2 84164 100.5000 204.0000 0000000   0.0000 327.0000 12.90384021    10
CTC1_L_00498018-07
1 84165U 26267CZ  26070.40837963  .00000000  00000+0  00000-0 0  9991
2 84165 100.5000 204.0000 0000000   0.0000  12.0000 12.90384021    12
CTC1_L_00498018-08
1 84166U 24185X   26070.40837963  .00000000  00000+0  00000-0 0  9999
2 84166 100.5000 204.0000 0000000   0.0000  57.0000 12.90384021    12
CTC1_L_00498019-01
1 84167U 25650CK  26070.40837963  .00000000  00000+0  00000-0 0  9998
2 84167 100.5000 216.0000 0000000   0.0000 108.0000 12.90384021    13
CTC1_L_00498019-02
1 84168U 24942NS  26070.40837963  .00000000  00000+0  00000-0 0  9992
2 84168 100.5000 216.0000 0000000   0.0000 153.0000 12.90384021    14
CTC1_L_00498019-03
1 84169U 23732VF  26070.40837963  .00000000  00000+0  00000-0 0  9999
2 84169 100.5000 216.0000 0000000   0.0000 198.0000 12.90384021    14
CTC1_L_00498019-04
1 84170U 24854IS  26070.40837963  .00000000  00000+0  00000-0 0  9997
2 84170 100.5000 216.0000 0000000   0.0000 243.0000 12.90384021    17
CTC1_L_00498019-05
1 84171U 24444TX  26070.40837963  .00000000  00000+0  00000-0 0  9993
2 84171 100.5000 216.0000 0000000   0.0000 288.0000 12.90384021    17
CTC1_L_00498019-06
1 84172U 23860BF  26070.40837963  .00000000  00000+0  00000-0 0  9995
2 84172 100.5000 216.0000 0000000   0.0000 333.0000 12.90384021    19
CTC1_L_00498019-07
1 84173U 22367Q   26070.40837963  .00000000  00000+0  00000-0 0  9997
2 84173 100.5000 216.0000 0000000   0.0000  18.0000 12.90384021    10
CTC1_L_00498019-08
1 84174U 23069TR  26070.40837963  .00000000  00000+0  00000-0 0  9998
2 84174 100.5000 216.0000 0000000   0.0000  63.0000 12.90384021    11
CTC1_L_00498020-01
1 84175U 25326TX  26070.40837963  .00000000  00000+0  00000-0 0  9997
2 84175 100.5000 228.0000 0000000   0.0000 114.0000 12.90384021    12
CTC1_L_00498020-02
1 84176U 26177YR  26070.40837963  .00000000  00000+0  00000-0 0  9993
2 84176 100.5000 228.0000 0000000   0.0000 159.0000 12.90384021    12
CTC1_L_00498020-03
1 84177U 25666DL  26070.40837963  .00000000  00000+0  00000-0 0  9996
2 84177 100.5000 228.0000 0000000   0.0000 204.0000 12.90384021    14
CTC1_L_00498020-04
1 84178U 24182WQ  26070.40837963  .00000000  00000+0  00000-0 0  9999
2 84178 100.5000 228.0000 0000000   0.0000 249.0000 12.90384021    14
CTC1_L_00498020-05
1 84179U 24085YF  26070.40837963  .00000000  00000+0  00000-0 0  9992
2 84179 100.5000 228.0000 0000000   0.0000 294.0000 12.90384021    15
CTC1_L_00498020-06
1 84180U 23661SS  26070.40837963  .00000000  00000+0  00000-0 0  9993
2 84180 100.5000 228.0000 0000000   0.0000 339.0000 12.90384021    17
CTC1_L_00498020-07
1 84181U 26949EE  26070.40837963  .00000000  00000+0  00000-0 0  9996
2 84181 100.5000 228.0000 0000000   0.0000  24.0000 12.90384021    19
CTC1_L_00498020-08
1 84182U 22028LD  26070.40837963  .00000000  00000+0  00000-0 0  9991
2 84182 100.5000 228.0000 0000000   0.0000  69.0000 12.90384021    19
CTC1_L_00498021-01
1 84183U 22587TX  26070.40837963  .00000000  00000+0  00000-0 0  9992
2 84183 100.5000 240.0000 0000000   0.0000 120.0000 12.90384021    12
CTC1_L_00498021-02
1 84184U 26145CY  26070.40837963  .00000000  00000+0  00000-0 0  9997
2 84184 100.5000 240.0000 0000000   0.0000 165.0000 12.90384021    12
CTC1_L_00498021-03
1 84185U 25637FP  26070.40837963  .00000000  00000+0  00000-0 0  9993
2 84185 100.5000 240.0000 0000000   0.0000 210.0000 12.90384021    14
CTC1_L_00498021-04
1 84186U 25962JD  26070.40837963  .00000000  00000+0  00000-0 0  9995
2 84186 100.5000 240.0000 0000000   0.0000 255.0000 12.90384021    14
CTC1_L_00498021-05
1 84187U 24546FP  26070.40837963  .00000000  00000+0  00000-0 0  9993
2 84187 100.5000 240.0000 0000000   0.0000 300.0000 12.90384021    16
CTC1_L_00498021-06
1 84188U 24801FU  26070.40837963  .00000000  00000+0  00000-0 0  9998
2 84188 100.5000 240.0000 0000000   0.0000 345.0000 12.90384021    16
CTC1_L_00498021-07
1 84189U 25792OF  26070.40837963  .00000000  00000+0  00000-0 0  9999
2 84189 100.5000 240.0000 0000000   0.0000  30.0000 12.90384021    18
CTC1_L_00498021-08
1 84190U 25115DQ  26070.40837963  .00000000  00000+0  00000-0 0  9990
2 84190 100.5000 240.0000 0000000   0.0000  75.0000 12.90384021    19
CTC1_L_00498022-01
1 84191U 26991ES  26070.40837963  .00000000  00000+0  00000-0 0  9994
2 84191 100.5000 252.0000 0000000   0.0000 126.0000 12.90384021    10
CTC1_L_00498022-02
1 84192U 24327SB  26070.40837963  .00000000  00000+0  00000-0 0  9996
2 84192 100.5000 252.0000 0000000   0.0000 171.0000 12.90384021    11
CTC1_L_00498022-03
1 84193U 23926GF  26070.40837963  .00000000  00000+0  00000-0 0  9991
2 84193 100.5000 252.0000 0000000   0.0000 216.0000 12.90384021    12
CTC1_L_00498022-04
1 84194U 26782CL  26070.40837963  .00000000  00000+0  00000-0 0  9995
2 84194 100.5000 252.0000 0000000   0.0000 261.0000 12.90384021    13
CTC1_L_00498022-05
1 84195U 24475MX  26070.40837963  .00000000  00000+0  00000-0 0  9993
2 84195 100.5000 252.0000 0000000   0.0000 306.0000 12.90384021    14
CTC1_L_00498022-06
1 84196U 26486O   26070.40837963  .00000000  00000+0  00000-0 0  9998
2 84196 100.5000 252.0000 0000000   0.0000 351.0000 12.90384021    15
CTC1_L_00498022-07
1 84197U 25766RL  26070.40837963  .00000000  00000+0  00000-0 0  9999
2 84197 100.5000 252.0000 0000000   0.0000  36.0000 12.90384021    16
CTC1_L_00498022-08
1 84198U 24473BB  26070.40837963  .00000000  00000+0  00000-0 0  9994
2 84198 100.5000 252.0000 0000000   0.0000  81.0000 12.90384021    17
CTC1_L_00498023-01
1 84199U 24810OP  26070.40837963  .00000000  00000+0  00000-0 0  9990
2 84199 100.5000 264.0000 0000000   0.0000 132.0000 12.90384021    18
CTC1_L_00498023-02
1 84200U 23662XE  26070.40837963  .00000000  00000+0  00000-0 0  9997
2 84200 100.5000 264.0000 0000000   0.0000 177.0000 12.90384021    10
CTC1_L_00498023-03
1 84201U 24709DC  26070.40837963  .00000000  00000+0  00000-0 0  9991
2 84201 100.5000 264.0000 0000000   0.0000 222.0000 12.90384021    12
CTC1_L_00498023-04
1 84202U 26045IM  26070.40837963  .00000000  00000+0  00000-0 0  9997
2 84202 100.5000 264.0000 0000000   0.0000 267.0000 12.90384021    12
CTC1_L_00498023-05
1 84203U 23849LC  26070.40837963  .00000000  00000+0  00000-0 0  9997
2 84203 100.5000 264.0000 0000000   0.0000 312.0000 12.90384021    14
CTC1_L_00498023-06
1 84204U 23552OG  26070.40837963  .00000000  00000+0  00000-0 0  9999
2 84204 100.5000 264.0000 0000000   0.0000 357.0000 12.90384021    14
CTC1_L_00498023-07
1 84205U 23274SQ  26070.40837963  .00000000  00000+0  00000-0 0  9991
2 84205 100.5000 264.0000 0000000   0.0000  42.0000 12.90384021    16
CTC1_L_00498023-08
1 84206U 23411LO  26070.40837963  .00000000  00000+0  00000-0 0  9995
2 84206 100.5000 264.0000 0000000   0.0000  87.0000 12.90384021    16
CTC1_L_00498024-01
1 84207U 24506MA  26070.40837963  .00000000  00000+0  00000-0 0  9992
2 84207 100.5000 276.0000 0000000   0.0000 138.0000 12.90384021    17
CTC1_L_00498024-02
1 84208U 24409CV  26070.40837963  .00000000  00000+0  00000-0 0  9995
2 84208 100.5000 276.0000 0000000   0.0000 183.0000 12.90384021    18
